H1 CPF  1  HTS 2022  2 15 12  5461 larets           NONE
H2  0304206 5557    27944 2022 02 15  0  0  0 2022 02 20  0  0  0   180 1 1  0 0 0
H5  0.0560 
H9 
10 0 59628  33480.00000  0   -2402805.599   -6540225.885    1137500.922
10 0 59628  33660.00000  0   -2547451.673   -6119199.867    2430004.615
10 0 59628  33840.00000  0   -2585249.824   -5472781.770    3633312.581
10 0 59628  34020.00000  0   -2509335.899   -4627593.005    4703371.329
10 0 59628  34200.00000  0   -2317800.355   -3617598.258    5601121.867
10 0 59628  34380.00000  0   -2013906.309   -2482677.074    6293911.970
10 0 59628  34560.00000  0   -1606076.093   -1266998.047    6756641.929
10 0 59628  34740.00000  0   -1107654.504     -17273.515    6972621.049
10 0 59628  34920.00000  0    -536464.694    1219039.954    6934116.664
10 0 59628  35100.00000  0      85830.133    2395528.962    6642601.005
10 0 59628  35280.00000  0     734543.872    3468549.666    6108691.167
10 0 59628  35460.00000  0    1382933.713    4398837.191    5351783.954
10 0 59628  35640.00000  0    2003284.858    5152952.275    4399392.176
10 0 59628  35820.00000  0    2568078.449    5704513.136    3286189.938
10 0 59628  36000.00000  0    3051197.572    6035164.486    2052789.208
10 0 59628  36180.00000  0    3429116.729    6135240.533     744267.073
10 0 59628  36360.00000  0    3682010.878    6004068.638    -591499.386
10 0 59628  36540.00000  0    3794729.400    5649902.588   -1905617.373
10 0 59628  36720.00000  0    3757584.282    5089485.787   -3150007.599
10 0 59628  36900.00000  0    3566908.573    4347265.693   -4279199.415
10 0 59628  37080.00000  0    3225354.871    3454302.193   -5252007.956
10 0 59628  37260.00000  0    2741926.164    2446934.896   -6033026.800
10 0 59628  37440.00000  0    2131740.763    1365273.595   -6593884.061
10 0 59628  37620.00000  0    1415546.357     251585.391   -6914224.129
10 0 59628  37800.00000  0     619008.570    -851352.448   -6982400.849
10 0 59628  37980.00000  0    -228207.294   -1901880.999   -6795874.160
10 0 59628  38160.00000  0   -1093527.194   -2861013.311   -6361302.300
10 0 59628  38340.00000  0   -1942703.425   -3693874.077   -5694335.328
10 0 59628  38520.00000  0   -2741155.534   -4370979.853   -4819102.023
10 0 59628  38700.00000  0   -3455377.555   -4869319.152   -3767397.315
10 0 59628  38880.00000  0   -4054356.719   -5173184.243   -2577572.092
10 0 59628  39060.00000  0   -4510938.516   -5274712.479   -1293155.910
10 0 59628  39240.00000  0   -4803071.771   -5174105.764      38746.525
10 0 59628  39420.00000  0   -4914863.720   -4879509.885    1369224.010
10 0 59628  39600.00000  0   -4837384.580   -4406552.459    2649416.008
10 0 59628  39780.00000  0   -4569174.127   -3777560.182    3832366.780
10 0 59628  39960.00000  0   -4116427.758   -3020503.874    4874788.000
10 0 59628  40140.00000  0   -3492855.218   -2167729.913    5738653.735
10 0 59628  40320.00000  0   -2719230.163   -1254552.764    6392563.830
10 0 59628  40500.00000  0   -1822657.980    -317775.977    6812845.031
10 0 59628  40680.00000  0    -835590.316     605798.842    6984353.726
10 0 59628  40860.00000  0     205362.925    1480805.918    6900969.253
10 0 59628  41040.00000  0    1260785.347    2274654.351    6565786.914
10 0 59628  41220.00000  0    2289933.009    2958730.296    5991002.463
10 0 59628  41400.00000  0    3252292.613    3509424.034    5197495.674
10 0 59628  41580.00000  0    4109173.992    3908955.574    4214115.812
10 0 59628  41760.00000  0    4825274.479    4145964.979    3076677.895
10 0 59628  41940.00000  0    5370161.388    4215847.263    1826691.661
10 0 59628  42120.00000  0    5719593.031    4120804.470     509851.850
10 0 59628  42300.00000  0    5856613.130    3869611.337    -825651.223
10 0 59628  42480.00000  0    5772354.646    3477100.909   -2130933.419
10 0 59628  42660.00000  0    5466510.258    2963396.107   -3358246.466
10 0 59628  42840.00000  0    4947447.916    2352930.746   -4462754.939
10 0 59628  43020.00000  0    4231968.436    1673310.318   -5404188.465
10 0 59628  43200.00000  0    3344717.939     954070.467   -6148294.746
10 0 59628  43380.00000  0    2317295.726     225401.431   -6668048.073
10 0 59628  43560.00000  0    1187098.748    -483106.866   -6944582.032
10 0 59628  43740.00000  0      -4046.264   -1143650.916   -6967832.873
10 0 59628  43920.00000  0   -1211422.323   -1731290.057   -6736881.820
10 0 59628  44100.00000  0   -2389080.629   -2224878.111   -6259996.009
10 0 59628  44280.00000  0   -3491572.139   -2607825.690   -5554364.966
10 0 59628  44460.00000  0   -4475699.087   -2868668.983   -4645536.659
10 0 59628  44640.00000  0   -5302234.305   -3001426.690   -3566550.704
10 0 59628  44820.00000  0   -5937532.468   -3005723.689   -2356779.248
10 0 59628  45000.00000  0   -6354960.020   -2886672.171   -1060505.168
10 0 59628  45180.00000  0   -6536066.714   -2654510.781     274716.111
10 0 59628  45360.00000  0   -6471432.947   -2324015.536    1599845.877
10 0 59628  45540.00000  0   -6161140.432   -1913711.188    2866225.387
10 0 59628  45720.00000  0   -5614834.751   -1444924.990    4027420.022
10 0 59628  45900.00000  0   -4851384.630    -940735.631    5040960.156
10 0 59628  46080.00000  0   -3898159.030    -424875.017    5869897.033
10 0 59628  46260.00000  0   -2789978.992      79358.248    6484122.751
10 0 59628  46440.00000  0   -1567787.607     550125.930    6861418.457
10 0 59628  46620.00000  0    -277102.168     967970.201    6988202.375
10 0 59628  46800.00000  0    1033686.700    1316598.205    6859971.952
10 0 59628  46980.00000  0    2315114.990    1583506.290    6481440.917
10 0 59628  47160.00000  0    3518492.752    1760424.042    5866371.808
10 0 59628  47340.00000  0    4597745.434    1843564.507    5037106.945
10 0 59628  47520.00000  0    5511186.309    1833674.992    4023802.469
10 0 59628  47700.00000  0    6223163.516    1735887.822    2863378.201
10 0 59628  47880.00000  0    6705502.051    1559371.380    1598196.115
10 0 59628  48060.00000  0    6938673.588    1316796.359     274517.908
10 0 59628  48240.00000  0    6912630.053    1023642.085   -1059209.405
10 0 59628  48420.00000  0    6627251.520     697375.694   -2354166.633
10 0 59628  48600.00000  0    6092382.007     356544.049   -3562989.374
10 0 59628  48780.00000  0    5327455.353      19830.994   -4641530.899
10 0 59628  48960.00000  0    4360729.864    -294871.414   -5550482.421
10 0 59628  49140.00000  0    3228182.837    -571330.352   -6256783.531
10 0 59628  49320.00000  0    1972124.376    -795739.967   -6734786.448
10 0 59628  49500.00000  0     639589.578    -957356.526   -6967138.536
10 0 59628  49680.00000  0    -719423.341   -1048978.041   -6945372.553
10 0 59628  49860.00000  0   -2053813.296   -1067250.414   -6670196.820
10 0 59628  50040.00000  0   -3313277.735   -1012792.018   -6151481.613
10 0 59628  50220.00000  0   -4450195.147    -890131.853   -5407940.652
10 0 59628  50400.00000  0   -5421439.247    -707464.116   -4466514.422
10 0 59628  50580.00000  0   -6190058.989    -476225.529   -3361450.338
10 0 59628  50760.00000  0   -6726754.404    -210509.960   -2133097.064
10 0 59628  50940.00000  0   -7011074.396      73656.991    -826441.543
10 0 59628  51120.00000  0   -7032270.034     359150.604     510564.203
10 0 59628  51300.00000  0   -6789740.188     628644.072    1828814.997
10 0 59628  51480.00000  0   -6293052.338     865520.000    3079914.397
10 0 59628  51660.00000  0   -5561532.716    1054747.700    4218007.515
10 0 59628  51840.00000  0   -4623447.936    1183679.143    5201493.204
10 0 59628  52020.00000  0   -3514835.794    1242722.337    5994541.189
10 0 59628  52200.00000  0   -2278054.166    1225861.842    6568366.655
10 0 59628  52380.00000  0    -960112.352    1131006.254    6902228.921
10 0 59628  52560.00000  0     389141.235     960149.790    6984123.754
10 0 59628  52740.00000  0    1718898.421     719343.129    6811169.824
10 0 59628  52920.00000  0    2979284.043     418477.182    6389693.201
10 0 59628  53100.00000  0    4123209.365      70885.934    5735009.378
10 0 59628  53280.00000  0    5108130.820    -307220.429    4870901.524
10 0 59628  53460.00000  0    5897652.872    -697473.455    3828802.166
10 0 59628  53640.00000  0    6462918.235   -1080188.199    2646692.459
10 0 59628  53820.00000  0    6783722.239   -1435293.780    1367740.312
10 0 59628  54000.00000  0    6849290.334   -1743309.133      38722.313
10 0 59628  54180.00000  0    6658679.642   -1986319.084   -1291712.342
10 0 59628  54360.00000  0    6220771.293   -2148895.300   -2574865.469
10 0 59628  54540.00000  0    5553853.377   -2218913.746   -3763813.669
10 0 59628  54720.00000  0    4684820.777   -2188225.715   -4815148.655
10 0 59628  54900.00000  0    3648041.202   -2053151.015   -5690564.726
10 0 59628  55080.00000  0    2483943.486   -1814771.750   -6358230.871
10 0 59628  55260.00000  0    1237407.341   -1479014.423   -6793904.623
10 0 59628  55440.00000  0     -43980.598   -1056519.519   -6981767.659
10 0 59628  55620.00000  0   -1311737.726    -562306.871   -6914961.610
10 0 59628  55800.00000  0   -2518301.546     -15247.287   -6595824.319
10 0 59628  55980.00000  0   -3618797.168     562646.266   -6035820.435
10 0 59628  56160.00000  0   -4572701.712    1147085.497   -5255171.427
10 0 59628  56340.00000  0   -5345361.458    1712505.930   -4282184.341
10 0 59628  56520.00000  0   -5909303.449    2233168.060   -3152280.585
10 0 59628  56700.00000  0   -6245279.246    2684311.509   -1906739.937
10 0 59628  56880.00000  0   -6342990.040    3043308.420    -591197.520
10 0 59628  57060.00000  0   -6201447.809    3290759.538     746057.127
10 0 59628  57240.00000  0   -5828941.706    3411470.373    2055908.252
10 0 59628  57420.00000  0   -5242605.175    3395253.604    3290279.643
10 0 59628  57600.00000  0   -4467613.473    3237514.331    4403949.056
10 0 59628  57780.00000  0   -3536058.040    2939587.706    5356230.528
99
